{"fetched_at":"2026-07-23T07:05:44.990Z","source":"https://celestrak.org/NORAD/elements/gp.php?NAME=HULIANWANG&FORMAT=JSON","constellation":"guowang","records":[{"OBJECT_NAME":"HULIANWANG DIGUI-12","OBJECT_ID":"2025-030B","EPOCH":"2026-07-22T21:05:29.265216","CLASSIFICATION_TYPE":"U","MEAN_MOTION":13.29322652,"ECCENTRICITY":0.00008483,"INCLINATION":50.0023,"RA_OF_ASC_NODE":107.9406,"ARG_OF_PERICENTER":295.7259,"MEAN_ANOMALY":64.3526,"EPHEMERIS_TYPE":0,"NORAD_CAT_ID":62972,"ELEMENT_SET_NO":999,"REV_AT_EPOCH":7060,"BSTAR":0.000061785683,"MEAN_MOTION_DOT":-9.5e-7,"MEAN_MOTION_DDOT":0},{"OBJECT_NAME":"HULIANWANG DIGUI-13","OBJECT_ID":"2025-030C","EPOCH":"2026-07-22T20:41:16.943424","CLASSIFICATION_TYPE":"U","MEAN_MOTION":13.29324723,"ECCENTRICITY":0.00006722,"INCLINATION":50.0026,"RA_OF_ASC_NODE":107.8688,"ARG_OF_PERICENTER":298.4428,"MEAN_ANOMALY":61.6376,"EPHEMERIS_TYPE":0,"NORAD_CAT_ID":62973,"ELEMENT_SET_NO":999,"REV_AT_EPOCH":7060,"BSTAR":0.000042498655,"MEAN_MOTION_DOT":-0.00000104,"MEAN_MOTION_DDOT":0},{"OBJECT_NAME":"HULIANWANG DIGUI-14","OBJECT_ID":"2025-030D","EPOCH":"2026-07-22T20:05:15.740736","CLASSIFICATION_TYPE":"U","MEAN_MOTION":13.29327877,"ECCENTRICITY":0.00006683,"INCLINATION":50.0031,"RA_OF_ASC_NODE":107.7618,"ARG_OF_PERICENTER":301.7332,"MEAN_ANOMALY":58.3475,"EPHEMERIS_TYPE":0,"NORAD_CAT_ID":62974,"ELEMENT_SET_NO":999,"REV_AT_EPOCH":7060,"BSTAR":0.000054244079,"MEAN_MOTION_DOT":-9.9e-7,"MEAN_MOTION_DDOT":0},{"OBJECT_NAME":"HULIANWANG DIGUI-15","OBJECT_ID":"2025-030E","EPOCH":"2026-07-22T20:29:17.424096","CLASSIFICATION_TYPE":"U","MEAN_MOTION":13.29324806,"ECCENTRICITY":0.00007641,"INCLINATION":50.0027,"RA_OF_ASC_NODE":107.8285,"ARG_OF_PERICENTER":301.1392,"MEAN_ANOMALY":58.9405,"EPHEMERIS_TYPE":0,"NORAD_CAT_ID":62975,"ELEMENT_SET_NO":999,"REV_AT_EPOCH":7060,"BSTAR":0.000055447939,"MEAN_MOTION_DOT":-9.8e-7,"MEAN_MOTION_DDOT":0},{"OBJECT_NAME":"HULIANWANG DIGUI-16","OBJECT_ID":"2025-030F","EPOCH":"2026-07-22T19:53:21.688800","CLASSIFICATION_TYPE":"U","MEAN_MOTION":13.29325956,"ECCENTRICITY":0.00006358,"INCLINATION":50.0049,"RA_OF_ASC_NODE":107.7895,"ARG_OF_PERICENTER":299.9456,"MEAN_ANOMALY":60.1353,"EPHEMERIS_TYPE":0,"NORAD_CAT_ID":62976,"ELEMENT_SET_NO":999,"REV_AT_EPOCH":7060,"BSTAR":0.000044556512,"MEAN_MOTION_DOT":-0.00000103,"MEAN_MOTION_DDOT":0},{"OBJECT_NAME":"HULIANWANG DIGUI-17","OBJECT_ID":"2025-030G","EPOCH":"2026-07-22T21:29:26.863584","CLASSIFICATION_TYPE":"U","MEAN_MOTION":13.29326029,"ECCENTRICITY":0.00007532,"INCLINATION":50.0061,"RA_OF_ASC_NODE":107.5283,"ARG_OF_PERICENTER":291.1401,"MEAN_ANOMALY":68.9391,"EPHEMERIS_TYPE":0,"NORAD_CAT_ID":62977,"ELEMENT_SET_NO":999,"REV_AT_EPOCH":7061,"BSTAR":0.000037675182,"MEAN_MOTION_DOT":-0.00000107,"MEAN_MOTION_DDOT":0},{"OBJECT_NAME":"HULIANWANG DIGUI-18","OBJECT_ID":"2025-030H","EPOCH":"2026-07-22T21:17:22.646688","CLASSIFICATION_TYPE":"U","MEAN_MOTION":13.29327976,"ECCENTRICITY":0.00007915,"INCLINATION":50.0066,"RA_OF_ASC_NODE":107.4995,"ARG_OF_PERICENTER":289.8982,"MEAN_ANOMALY":70.1805,"EPHEMERIS_TYPE":0,"NORAD_CAT_ID":62978,"ELEMENT_SET_NO":999,"REV_AT_EPOCH":7061,"BSTAR":0.000044165403,"MEAN_MOTION_DOT":-0.00000104,"MEAN_MOTION_DDOT":0},{"OBJECT_NAME":"HULIANWANG DIGUI-19","OBJECT_ID":"2025-030J","EPOCH":"2026-07-22T20:17:29.243040","CLASSIFICATION_TYPE":"U","MEAN_MOTION":13.293194,"ECCENTRICITY":0.00006775,"INCLINATION":50.0051,"RA_OF_ASC_NODE":107.8845,"ARG_OF_PERICENTER":289.2236,"MEAN_ANOMALY":70.8563,"EPHEMERIS_TYPE":0,"NORAD_CAT_ID":62979,"ELEMENT_SET_NO":999,"REV_AT_EPOCH":7060,"BSTAR":0.00005160247,"MEAN_MOTION_DOT":-0.000001,"MEAN_MOTION_DDOT":0},{"OBJECT_NAME":"HULIANWANG DIGUI-20","OBJECT_ID":"2025-086A","EPOCH":"2026-07-22T21:50:40.137792","CLASSIFICATION_TYPE":"U","MEAN_MOTION":13.24411925,"ECCENTRICITY":0.00021812,"INCLINATION":86.5064,"RA_OF_ASC_NODE":301.1023,"ARG_OF_PERICENTER":110.0959,"MEAN_ANOMALY":250.041,"EPHEMERIS_TYPE":0,"NORAD_CAT_ID":63687,"ELEMENT_SET_NO":999,"REV_AT_EPOCH":5960,"BSTAR":0.00010644092,"MEAN_MOTION_DOT":6e-7,"MEAN_MOTION_DDOT":0},{"OBJECT_NAME":"HULIANWANG DIGUI-21","OBJECT_ID":"2025-086B","EPOCH":"2026-07-22T22:01:36.028704","CLASSIFICATION_TYPE":"U","MEAN_MOTION":13.24410567,"ECCENTRICITY":0.00021464,"INCLINATION":86.5093,"RA_OF_ASC_NODE":301.1672,"ARG_OF_PERICENTER":113.3969,"MEAN_ANOMALY":246.7391,"EPHEMERIS_TYPE":0,"NORAD_CAT_ID":63688,"ELEMENT_SET_NO":999,"REV_AT_EPOCH":5959,"BSTAR":0.000087066159,"MEAN_MOTION_DOT":5.2e-7,"MEAN_MOTION_DDOT":0},{"OBJECT_NAME":"HULIANWANG DIGUI-22","OBJECT_ID":"2025-086C","EPOCH":"2026-07-22T22:12:25.664256","CLASSIFICATION_TYPE":"U","MEAN_MOTION":13.24410936,"ECCENTRICITY":0.00022202,"INCLINATION":86.5058,"RA_OF_ASC_NODE":301.0206,"ARG_OF_PERICENTER":109.2964,"MEAN_ANOMALY":250.841,"EPHEMERIS_TYPE":0,"NORAD_CAT_ID":63689,"ELEMENT_SET_NO":999,"REV_AT_EPOCH":5959,"BSTAR":0.000071859483,"MEAN_MOTION_DOT":4.5e-7,"MEAN_MOTION_DDOT":0},{"OBJECT_NAME":"HULIANWANG DIGUI-23","OBJECT_ID":"2025-086D","EPOCH":"2026-07-22T20:45:21.790656","CLASSIFICATION_TYPE":"U","MEAN_MOTION":13.24410685,"ECCENTRICITY":0.00021959,"INCLINATION":86.51,"RA_OF_ASC_NODE":301.2337,"ARG_OF_PERICENTER":109.8981,"MEAN_ANOMALY":250.239,"EPHEMERIS_TYPE":0,"NORAD_CAT_ID":63690,"ELEMENT_SET_NO":999,"REV_AT_EPOCH":5958,"BSTAR":7.76215e-7,"MEAN_MOTION_DOT":1.5e-7,"MEAN_MOTION_DDOT":0},{"OBJECT_NAME":"HULIANWANG DIGUI-24","OBJECT_ID":"2025-086E","EPOCH":"2026-07-22T20:56:17.315232","CLASSIFICATION_TYPE":"U","MEAN_MOTION":13.24411333,"ECCENTRICITY":0.00021797,"INCLINATION":86.5106,"RA_OF_ASC_NODE":301.267,"ARG_OF_PERICENTER":112.4525,"MEAN_ANOMALY":247.684,"EPHEMERIS_TYPE":0,"NORAD_CAT_ID":63691,"ELEMENT_SET_NO":999,"REV_AT_EPOCH":5958,"BSTAR":-0.000017426052,"MEAN_MOTION_DOT":7e-8,"MEAN_MOTION_DDOT":0},{"OBJECT_NAME":"HULIANWANG DIGUI-25","OBJECT_ID":"2025-086F","EPOCH":"2026-07-22T21:07:10.323840","CLASSIFICATION_TYPE":"U","MEAN_MOTION":13.24410715,"ECCENTRICITY":0.00021094,"INCLINATION":86.5045,"RA_OF_ASC_NODE":301.0038,"ARG_OF_PERICENTER":110.8607,"MEAN_ANOMALY":249.2753,"EPHEMERIS_TYPE":0,"NORAD_CAT_ID":63692,"ELEMENT_SET_NO":999,"REV_AT_EPOCH":5958,"BSTAR":0.000013560881,"MEAN_MOTION_DOT":2e-7,"MEAN_MOTION_DDOT":0},{"OBJECT_NAME":"HULIANWANG DIGUI-26","OBJECT_ID":"2025-086G","EPOCH":"2026-07-22T20:34:29.781696","CLASSIFICATION_TYPE":"U","MEAN_MOTION":13.24409726,"ECCENTRICITY":0.00023718,"INCLINATION":86.5094,"RA_OF_ASC_NODE":301.2034,"ARG_OF_PERICENTER":114.2509,"MEAN_ANOMALY":245.8873,"EPHEMERIS_TYPE":0,"NORAD_CAT_ID":63693,"ELEMENT_SET_NO":999,"REV_AT_EPOCH":5958,"BSTAR":0.000032129432,"MEAN_MOTION_DOT":2.8e-7,"MEAN_MOTION_DDOT":0},{"OBJECT_NAME":"HULIANWANG DIGUI-27","OBJECT_ID":"2025-086H","EPOCH":"2026-07-22T21:17:59.895456","CLASSIFICATION_TYPE":"U","MEAN_MOTION":13.24412524,"ECCENTRICITY":0.00021828,"INCLINATION":86.5054,"RA_OF_ASC_NODE":301.0485,"ARG_OF_PERICENTER":111.6666,"MEAN_ANOMALY":248.4701,"EPHEMERIS_TYPE":0,"NORAD_CAT_ID":63694,"ELEMENT_SET_NO":999,"REV_AT_EPOCH":5958,"BSTAR":0.000043448179,"MEAN_MOTION_DOT":3.3e-7,"MEAN_MOTION_DDOT":0}]}
