{"epoch":1784799577,"count":18318,"objects":[{"id":"62972","name":"HULIANWANG DIGUI-12","type":"PAYLOAD","l1":"1 62972U 25030B   26203.87881094 -.00000095  00000-0  61786-4 0  9991","l2":"2 62972  50.0023 107.9406 0000848 295.7259  64.3526 13.29322652 70608"},{"id":"62973","name":"HULIANWANG DIGUI-13","type":"PAYLOAD","l1":"1 62973U 25030C   26203.86200166 -.00000104  00000-0  42499-4 0  9997","l2":"2 62973  50.0026 107.8688 0000672 298.4428  61.6376 13.29324723 70600"},{"id":"62974","name":"HULIANWANG DIGUI-14","type":"PAYLOAD","l1":"1 62974U 25030D   26203.83698774 -.00000099  00000-0  54244-4 0  9995","l2":"2 62974  50.0031 107.7618 0000668 301.7332  58.3475 13.29327877 70602"},{"id":"62975","name":"HULIANWANG DIGUI-15","type":"PAYLOAD","l1":"1 62975U 25030E   26203.85367389 -.00000098  00000-0  55448-4 0  9999","l2":"2 62975  50.0027 107.8285 0000764 301.1392  58.9405 13.29324806 70604"},{"id":"62976","name":"HULIANWANG DIGUI-16","type":"PAYLOAD","l1":"1 62976U 25030F   26203.82872325 -.00000103  00000-0  44557-4 0  9994","l2":"2 62976  50.0049 107.7895 0000636 299.9456  60.1353 13.29325956 70602"},{"id":"62977","name":"HULIANWANG DIGUI-17","type":"PAYLOAD","l1":"1 62977U 25030G   26203.89544981 -.00000107  00000-0  37675-4 0  9993","l2":"2 62977  50.0061 107.5283 0000753 291.1401  68.9391 13.29326029 70611"},{"id":"62978","name":"HULIANWANG DIGUI-18","type":"PAYLOAD","l1":"1 62978U 25030H   26203.88706767 -.00000104  00000-0  44165-4 0  9994","l2":"2 62978  50.0066 107.4995 0000791 289.8982  70.1805 13.29327976 70613"},{"id":"62979","name":"HULIANWANG DIGUI-19","type":"PAYLOAD","l1":"1 62979U 25030J   26203.84547735 -.00000100  00000-0  51602-4 0  9999","l2":"2 62979  50.0051 107.8845 0000677 289.2236  70.8563 13.29319400 70605"},{"id":"63687","name":"HULIANWANG DIGUI-20","type":"PAYLOAD","l1":"1 63687U 25086A   26203.91018678  .00000060  00000-0  10644-3 0  9998","l2":"2 63687  86.5064 301.1023 0002181 110.0959 250.0410 13.24411925 59602"},{"id":"63688","name":"HULIANWANG DIGUI-21","type":"PAYLOAD","l1":"1 63688U 25086B   26203.91777811  .00000052  00000-0  87066-4 0  9994","l2":"2 63688  86.5093 301.1672 0002146 113.3969 246.7391 13.24410567 59592"},{"id":"63689","name":"HULIANWANG DIGUI-22","type":"PAYLOAD","l1":"1 63689U 25086C   26203.92529704  .00000045  00000-0  71859-4 0  9997","l2":"2 63689  86.5058 301.0206 0002220 109.2964 250.8410 13.24410936 59596"},{"id":"63690","name":"HULIANWANG DIGUI-23","type":"PAYLOAD","l1":"1 63690U 25086D   26203.86483554  .00000015  00000-0  77622-6 0  9997","l2":"2 63690  86.5100 301.2337 0002196 109.8981 250.2390 13.24410685 59581"},{"id":"63691","name":"HULIANWANG DIGUI-24","type":"PAYLOAD","l1":"1 63691U 25086E   26203.87242263  .00000007  00000-0 -17426-4 0  9995","l2":"2 63691  86.5106 301.2670 0002180 112.4525 247.6840 13.24411333 59586"},{"id":"63692","name":"HULIANWANG DIGUI-25","type":"PAYLOAD","l1":"1 63692U 25086F   26203.87998060  .00000020  00000-0  13561-4 0  9999","l2":"2 63692  86.5045 301.0038 0002109 110.8607 249.2753 13.24410715 59583"},{"id":"63693","name":"HULIANWANG DIGUI-26","type":"PAYLOAD","l1":"1 63693U 25086G   26203.85728914  .00000028  00000-0  32129-4 0  9996","l2":"2 63693  86.5094 301.2034 0002372 114.2509 245.8873 13.24409726 59582"},{"id":"63694","name":"HULIANWANG DIGUI-27","type":"PAYLOAD","l1":"1 63694U 25086H   26203.88749879  .00000033  00000-0  43448-4 0  9995","l2":"2 63694  86.5054 301.0485 0002183 111.6666 248.4701 13.24412524 59581"}]}